{
  "type": "FeatureCollection",
  "features": [
    {
      "type": "Feature",
      "properties": {
        "norad_id": 34613,
        "name": "COSMOS 2251 DEB",
        "group": "cosmos-2251-debris",
        "lat": -73.29836562480367,
        "lon": -139.4664409815671,
        "alt_km": 876.7268279242726,
        "timestamp": "2025-12-04T05:42:43.766843+00:00",
        "meta_object_name": "COSMOS 2251 DEB",
        "meta_object_id": "1993-036WJ",
        "meta_epoch": "2025-12-03T15:46:37.606944",
        "meta_mean_motion": 14.26344631,
        "meta_eccentricity": 0.01101422,
        "meta_inclination": 73.9632,
        "meta_ra_of_asc_node": 295.0439,
        "meta_arg_of_pericenter": 129.2472,
        "meta_mean_anomaly": 44.5087,
        "meta_ephemeris_type": 0,
        "meta_classification_type": "U",
        "meta_norad_cat_id": 34613,
        "meta_element_set_no": 999,
        "meta_rev_at_epoch": 86333,
        "meta_bstar": 0.0016694425,
        "meta_mean_motion_dot": 4.253e-05,
        "meta_mean_motion_ddot": 0,
        "tle_line1": "1 34613U 93036WJ  25337.65737971  .00004253  00000+0  16694-2 0  9994",
        "tle_line2": "2 34613  73.9632 295.0439 0110142 129.2472  44.5087 14.26344631863332"
      },
      "geometry": {
        "type": "Point",
        "coordinates": [
          -139.4664409815671,
          -73.29836562480367
        ]
      }
    },
    {
      "type": "Feature",
      "properties": {
        "norad_id": 34614,
        "name": "COSMOS 2251 DEB",
        "group": "cosmos-2251-debris",
        "lat": 66.05334781936781,
        "lon": 138.55236281205967,
        "alt_km": 882.1182012997579,
        "timestamp": "2025-12-04T05:42:43.766853+00:00",
        "meta_object_name": "COSMOS 2251 DEB",
        "meta_object_id": "1993-036WK",
        "meta_epoch": "2025-12-02T21:17:05.186112",
        "meta_mean_motion": 14.17081301,
        "meta_eccentricity": 0.01965888,
        "meta_inclination": 73.8803,
        "meta_ra_of_asc_node": 1.6106,
        "meta_arg_of_pericenter": 357.259,
        "meta_mean_anomaly": 58.3338,
        "meta_ephemeris_type": 0,
        "meta_classification_type": "U",
        "meta_norad_cat_id": 34614,
        "meta_element_set_no": 999,
        "meta_rev_at_epoch": 84627,
        "meta_bstar": 0.0059272273,
        "meta_mean_motion_dot": 0.00014422,
        "meta_mean_motion_ddot": 0,
        "tle_line1": "1 34614U 93036WK  25336.88686558  .00014422  00000+0  59272-2 0  9991",
        "tle_line2": "2 34614  73.8803   1.6106 0196588 357.2590  58.3338 14.17081301846274"
      },
      "geometry": {
        "type": "Point",
        "coordinates": [
          138.55236281205967,
          66.05334781936781
        ]
      }
    },
    {
      "type": "Feature",
      "properties": {
        "norad_id": 34615,
        "name": "COSMOS 2251 DEB",
        "group": "cosmos-2251-debris",
        "lat": -8.185444074499902,
        "lon": 130.1440040854347,
        "alt_km": 801.5519209140939,
        "timestamp": "2025-12-04T05:42:43.766863+00:00",
        "meta_object_name": "COSMOS 2251 DEB",
        "meta_object_id": "1993-036WL",
        "meta_epoch": "2025-12-01T17:17:48.208704",
        "meta_mean_motion": 13.52196517,
        "meta_eccentricity": 0.04023715,
        "meta_inclination": 74.0055,
        "meta_ra_of_asc_node": 311.8151,
        "meta_arg_of_pericenter": 221.3257,
        "meta_mean_anomaly": 319.7339,
        "meta_ephemeris_type": 0,
        "meta_classification_type": "U",
        "meta_norad_cat_id": 34615,
        "meta_element_set_no": 999,
        "meta_rev_at_epoch": 82666,
        "meta_bstar": 4.7217708e-05,
        "meta_mean_motion_dot": 2.9e-07,
        "meta_mean_motion_ddot": 0,
        "tle_line1": "1 34615U 93036WL  25335.72069686  .00000029  00000+0  47218-4 0  9998",
        "tle_line2": "2 34615  74.0055 311.8151 0402371 221.3257 319.7339 13.52196517826664"
      },
      "geometry": {
        "type": "Point",
        "coordinates": [
          130.1440040854347,
          -8.185444074499902
        ]
      }
    },
    {
      "type": "Feature",
      "properties": {
        "norad_id": 34619,
        "name": "COSMOS 2251 DEB",
        "group": "cosmos-2251-debris",
        "lat": -71.23454651744552,
        "lon": 93.63510209504759,
        "alt_km": 644.8012217912874,
        "timestamp": "2025-12-04T05:42:43.766873+00:00",
        "meta_object_name": "COSMOS 2251 DEB",
        "meta_object_id": "1993-036WQ",
        "meta_epoch": "2025-12-03T17:02:45.391776",
        "meta_mean_motion": 14.64606492,
        "meta_eccentricity": 0.00945658,
        "meta_inclination": 74.0444,
        "meta_ra_of_asc_node": 217.2897,
        "meta_arg_of_pericenter": 314.2374,
        "meta_mean_anomaly": 45.1056,
        "meta_ephemeris_type": 0,
        "meta_classification_type": "U",
        "meta_norad_cat_id": 34619,
        "meta_element_set_no": 999,
        "meta_rev_at_epoch": 89166,
        "meta_bstar": 0.0003450527,
        "meta_mean_motion_dot": 1.923e-05,
        "meta_mean_motion_ddot": 0,
        "tle_line1": "1 34619U 93036WQ  25337.71024759  .00001923  00000+0  34505-3 0  9993",
        "tle_line2": "2 34619  74.0444 217.2897 0094565 314.2374  45.1056 14.64606492891660"
      },
      "geometry": {
        "type": "Point",
        "coordinates": [
          93.63510209504759,
          -71.23454651744552
        ]
      }
    },
    {
      "type": "Feature",
      "properties": {
        "norad_id": 34620,
        "name": "COSMOS 2251 DEB",
        "group": "cosmos-2251-debris",
        "lat": -69.2967890522646,
        "lon": 104.62394405114152,
        "alt_km": 680.6813077730758,
        "timestamp": "2025-12-04T05:42:43.766883+00:00",
        "meta_object_name": "COSMOS 2251 DEB",
        "meta_object_id": "1993-036WR",
        "meta_epoch": "2025-12-03T03:40:05.521152",
        "meta_mean_motion": 14.48819497,
        "meta_eccentricity": 0.0081909,
        "meta_inclination": 74.0521,
        "meta_ra_of_asc_node": 237.4888,
        "meta_arg_of_pericenter": 276.0951,
        "meta_mean_anomaly": 83.0881,
        "meta_ephemeris_type": 0,
        "meta_classification_type": "U",
        "meta_norad_cat_id": 34620,
        "meta_element_set_no": 999,
        "meta_rev_at_epoch": 86688,
        "meta_bstar": 0.003290247,
        "meta_mean_motion_dot": 0.00012967,
        "meta_mean_motion_ddot": 0,
        "tle_line1": "1 34620U 93036WR  25337.15284168  .00012967  00000+0  32902-2 0  9993",
        "tle_line2": "2 34620  74.0521 237.4888 0081909 276.0951  83.0881 14.48819497866882"
      },
      "geometry": {
        "type": "Point",
        "coordinates": [
          104.62394405114152,
          -69.2967890522646
        ]
      }
    },
    {
      "type": "Feature",
      "properties": {
        "norad_id": 34622,
        "name": "COSMOS 2251 DEB",
        "group": "cosmos-2251-debris",
        "lat": -1.8620745419167757,
        "lon": -38.26638293989603,
        "alt_km": 771.6383866422029,
        "timestamp": "2025-12-04T05:42:43.766893+00:00",
        "meta_object_name": "COSMOS 2251 DEB",
        "meta_object_id": "1993-036WT",
        "meta_epoch": "2025-12-03T06:09:34.973856",
        "meta_mean_motion": 14.21976964,
        "meta_eccentricity": 0.0103992,
        "meta_inclination": 74.0416,
        "meta_ra_of_asc_node": 324.0265,
        "meta_arg_of_pericenter": 48.8586,
        "meta_mean_anomaly": 328.5405,
        "meta_ephemeris_type": 0,
        "meta_classification_type": "U",
        "meta_norad_cat_id": 34622,
        "meta_element_set_no": 999,
        "meta_rev_at_epoch": 86325,
        "meta_bstar": 0.0012722,
        "meta_mean_motion_dot": 2.945e-05,
        "meta_mean_motion_ddot": 0,
        "tle_line1": "1 34622U 93036WT  25337.25665479  .00002945  00000+0  12722-2 0  9997",
        "tle_line2": "2 34622  74.0416 324.0265 0103992  48.8586 328.5405 14.21976964863256"
      },
      "geometry": {
        "type": "Point",
        "coordinates": [
          -38.26638293989603,
          -1.8620745419167757
        ]
      }
    },
    {
      "type": "Feature",
      "properties": {
        "norad_id": 34626,
        "name": "COSMOS 2251 DEB",
        "group": "cosmos-2251-debris",
        "lat": 73.92305701368771,
        "lon": 77.45749406563651,
        "alt_km": 629.9238141901242,
        "timestamp": "2025-12-04T05:42:43.766903+00:00",
        "meta_object_name": "COSMOS 2251 DEB",
        "meta_object_id": "1993-036WX",
        "meta_epoch": "2025-12-03T10:25:41.739168",
        "meta_mean_motion": 14.72014634,
        "meta_eccentricity": 0.00261929,
        "meta_inclination": 74.048,
        "meta_ra_of_asc_node": 341.9842,
        "meta_arg_of_pericenter": 73.1994,
        "meta_mean_anomaly": 82.4621,
        "meta_ephemeris_type": 0,
        "meta_classification_type": "U",
        "meta_norad_cat_id": 34626,
        "meta_element_set_no": 999,
        "meta_rev_at_epoch": 89007,
        "meta_bstar": 0.0012403674,
        "meta_mean_motion_dot": 7.808e-05,
        "meta_mean_motion_ddot": 0,
        "tle_line1": "1 34626U 93036WX  25337.43451087  .00007808  00000+0  12404-2 0  9999",
        "tle_line2": "2 34626  74.0480 341.9842 0026192  73.1994  82.4621 14.72014634890079"
      },
      "geometry": {
        "type": "Point",
        "coordinates": [
          77.45749406563651,
          73.92305701368771
        ]
      }
    }
  ]
}